{"type": "FeatureCollection", "features": [ {"type": "Feature", "properties": {"norad_id": 52912, "name": "GAOFEN-12 03", "group": "resource", "lat": -35.130914115547014, "lon": 63.12440569656678, "alt_km": 637.892903394908, "timestamp": "2025-12-27T16:33:29.893805+00:00", "meta": {"OBJECT_NAME": "GAOFEN-12 03", "OBJECT_ID": "2022-069A", "EPOCH": "2025-12-27T12:20:30.450048", "MEAN_MOTION": 14.79644002, "ECCENTRICITY": 0.0001677, "INCLINATION": 97.8474, "RA_OF_ASC_NODE": 248.5217, "ARG_OF_PERICENTER": 46.4457, "MEAN_ANOMALY": 313.6894, "EPHEMERIS_TYPE": 0, "CLASSIFICATION_TYPE": "U", "NORAD_CAT_ID": 52912, "ELEMENT_SET_NO": 999, "REV_AT_EPOCH": 18922, "BSTAR": 0.00017896, "MEAN_MOTION_DOT": 1.291e-05, "MEAN_MOTION_DDOT": 0}, "tle": {"line1": "1 52912U 22069A   25361.51424132  .00001291  00000+0  17896-3 0  9993", "line2": "2 52912  97.8474 248.5217 0001677  46.4457 313.6894 14.79644002189223"}}, "geometry": {"type": "Point", "coordinates": [63.12440569656678, -35.130914115547014]}}, {"type": "Feature", "properties": {"norad_id": 54754, "name": "SWOT", "group": "resource", "lat": -63.872364919949085, "lon": 113.4335484622092, "alt_km": 900.5440823145855, "timestamp": "2025-12-27T16:33:29.893816+00:00", "meta": {"OBJECT_NAME": "SWOT", "OBJECT_ID": "2022-173A", "EPOCH": "2025-12-27T11:57:12.848832", "MEAN_MOTION": 14.00169206, "ECCENTRICITY": 4.3e-05, "INCLINATION": 77.6106, "RA_OF_ASC_NODE": 267.0683, "ARG_OF_PERICENTER": 79.3734, "MEAN_ANOMALY": 280.7466, "EPHEMERIS_TYPE": 0, "CLASSIFICATION_TYPE": "U", "NORAD_CAT_ID": 54754, "ELEMENT_SET_NO": 999, "REV_AT_EPOCH": 15512, "BSTAR": 9.0778e-05, "MEAN_MOTION_DOT": 1.31e-06, "MEAN_MOTION_DDOT": 0}, "tle": {"line1": "1 54754U 22173A   25361.49806538  .00000131  00000+0  90778-4 0  9999", "line2": "2 54754  77.6106 267.0683 0000430  79.3734 280.7466 14.00169206155122"}}, "geometry": {"type": "Point", "coordinates": [113.4335484622092, -63.872364919949085]}}, {"type": "Feature", "properties": {"norad_id": 57654, "name": "GAOFEN-12 04", "group": "resource", "lat": 29.761222900805954, "lon": -87.34037539451619, "alt_km": 628.1382884778059, "timestamp": "2025-12-27T16:33:29.893826+00:00", "meta": {"OBJECT_NAME": "GAOFEN-12 04", "OBJECT_ID": "2023-123A", "EPOCH": "2025-12-27T13:10:37.368768", "MEAN_MOTION": 14.79743643, "ECCENTRICITY": 0.0001188, "INCLINATION": 97.9129, "RA_OF_ASC_NODE": 277.0824, "ARG_OF_PERICENTER": 81.2849, "MEAN_ANOMALY": 278.8497, "EPHEMERIS_TYPE": 0, "CLASSIFICATION_TYPE": "U", "NORAD_CAT_ID": 57654, "ELEMENT_SET_NO": 999, "REV_AT_EPOCH": 12724, "BSTAR": 0.00022149, "MEAN_MOTION_DOT": 1.614e-05, "MEAN_MOTION_DDOT": 0}, "tle": {"line1": "1 57654U 23123A   25361.54904362  .00001614  00000+0  22149-3 0  9990", "line2": "2 57654  97.9129 277.0824 0001188  81.2849 278.8497 14.79743643127245"}}, "geometry": {"type": "Point", "coordinates": [-87.34037539451619, 29.761222900805954]}}, {"type": "Feature", "properties": {"norad_id": 59065, "name": "PARS 1", "group": "resource", "lat": 52.11601222350355, "lon": 162.64769981345043, "alt_km": 438.87512049881843, "timestamp": "2025-12-27T16:33:29.893836+00:00", "meta": {"OBJECT_NAME": "PARS 1", "OBJECT_ID": "2024-039Q", "EPOCH": "2025-12-27T12:53:34.636416", "MEAN_MOTION": 15.41320165, "ECCENTRICITY": 0.0011217, "INCLINATION": 97.4654, "RA_OF_ASC_NODE": 332.7885, "ARG_OF_PERICENTER": 26.5923, "MEAN_ANOMALY": 333.5897, "EPHEMERIS_TYPE": 0, "CLASSIFICATION_TYPE": "U", "NORAD_CAT_ID": 59065, "ELEMENT_SET_NO": 999, "REV_AT_EPOCH": 10216, "BSTAR": 0.00033823, "MEAN_MOTION_DOT": 0.00014046, "MEAN_MOTION_DDOT": 0}, "tle": {"line1": "1 59065U 24039Q   25361.53720644  .00014046  00000+0  33823-3 0  9997", "line2": "2 59065  97.4654 332.7885 0011217  26.5923 333.5897 15.41320165102163"}}, "geometry": {"type": "Point", "coordinates": [162.64769981345043, 52.11601222350355]}}, {"type": "Feature", "properties": {"norad_id": 59371, "name": "RESURS-P 4", "group": "resource", "lat": 34.08471535306585, "lon": 132.66210489919277, "alt_km": 466.7480793078612, "timestamp": "2025-12-27T16:33:29.893846+00:00", "meta": {"OBJECT_NAME": "RESURS-P 4", "OBJECT_ID": "2024-061A", "EPOCH": "2025-12-27T12:47:26.407392", "MEAN_MOTION": 15.3221713, "ECCENTRICITY": 8.1e-05, "INCLINATION": 97.2561, "RA_OF_ASC_NODE": 307.5623, "ARG_OF_PERICENTER": 96.0925, "MEAN_ANOMALY": 264.0409, "EPHEMERIS_TYPE": 0, "CLASSIFICATION_TYPE": "U", "NORAD_CAT_ID": 59371, "ELEMENT_SET_NO": 999, "REV_AT_EPOCH": 9747, "BSTAR": 0.00015205, "MEAN_MOTION_DOT": 4.653e-05, "MEAN_MOTION_DDOT": 0}, "tle": {"line1": "1 59371U 24061A   25361.53294453  .00004653  00000+0  15205-3 0  9993", "line2": "2 59371  97.2561 307.5623 0000810  96.0925 264.0409 15.32217130 97470"}}, "geometry": {"type": "Point", "coordinates": [132.66210489919277, 34.08471535306585]}}, {"type": "Feature", "properties": {"norad_id": 59625, "name": "LEGION 1", "group": "resource", "lat": -71.2899729851401, "lon": -126.75413310213986, "alt_km": 520.8123552862317, "timestamp": "2025-12-27T16:33:29.893856+00:00", "meta": {"OBJECT_NAME": "LEGION 1", "OBJECT_ID": "2024-081A", "EPOCH": "2025-12-27T12:16:47.658144", "MEAN_MOTION": 15.16625986, "ECCENTRICITY": 0.0003697, "INCLINATION": 97.5192, "RA_OF_ASC_NODE": 76.0239, "ARG_OF_PERICENTER": 248.1926, "MEAN_ANOMALY": 111.8913, "EPHEMERIS_TYPE": 0, "CLASSIFICATION_TYPE": "U", "NORAD_CAT_ID": 59625, "ELEMENT_SET_NO": 999, "REV_AT_EPOCH": 9151, "BSTAR": 0.00028449, "MEAN_MOTION_DOT": 5.496e-05, "MEAN_MOTION_DDOT": 0}, "tle": {"line1": "1 59625U 24081A   25361.51166271  .00005496  00000+0  28449-3 0  9991", "line2": "2 59625  97.5192  76.0239 0003697 248.1926 111.8913 15.16625986 91515"}}, "geometry": {"type": "Point", "coordinates": [-126.75413310213986, -71.2899729851401]}}, {"type": "Feature", "properties": {"norad_id": 59626, "name": "LEGION 2", "group": "resource", "lat": 71.62033492938377, "lon": 52.862870213114576, "alt_km": 512.7951835184203, "timestamp": "2025-12-27T16:33:29.893866+00:00", "meta": {"OBJECT_NAME": "LEGION 2", "OBJECT_ID": "2024-081B", "EPOCH": "2025-12-27T11:29:10.041216", "MEAN_MOTION": 15.16641196, "ECCENTRICITY": 0.0005852, "INCLINATION": 97.5197, "RA_OF_ASC_NODE": 76.0791, "ARG_OF_PERICENTER": 230.1297, "MEAN_ANOMALY": 129.9422, "EPHEMERIS_TYPE": 0, "CLASSIFICATION_TYPE": "U", "NORAD_CAT_ID": 59626, "ELEMENT_SET_NO": 999, "REV_AT_EPOCH": 9151, "BSTAR": 0.00030136, "MEAN_MOTION_DOT": 5.83e-05, "MEAN_MOTION_DDOT": 0}, "tle": {"line1": "1 59626U 24081B   25361.47858844  .00005830  00000+0  30136-3 0  9999", "line2": "2 59626  97.5197  76.0791 0005852 230.1297 129.9422 15.16641196 91517"}}, "geometry": {"type": "Point", "coordinates": [52.862870213114576, 71.62033492938377]}}, {"type": "Feature", "properties": {"norad_id": 60182, "name": "ALOS-4 (DAICHI-4)", "group": "resource", "lat": -75.16521488277928, "lon": -115.39220507536636, "alt_km": 639.2172672670858, "timestamp": "2025-12-27T16:33:29.893876+00:00", "meta": {"OBJECT_NAME": "ALOS-4 (DAICHI-4)", "OBJECT_ID": "2024-123A", "EPOCH": "2025-12-26T19:55:12.965952", "MEAN_MOTION": 14.79478137, "ECCENTRICITY": 0.00014191, "INCLINATION": 97.9215, "RA_OF_ASC_NODE": 95.4758, "ARG_OF_PERICENTER": 100.4397, "MEAN_ANOMALY": 259.6975, "EPHEMERIS_TYPE": 0, "CLASSIFICATION_TYPE": "U", "NORAD_CAT_ID": 60182, "ELEMENT_SET_NO": 999, "REV_AT_EPOCH": 8039, "BSTAR": 0.00030778868, "MEAN_MOTION_DOT": 2.248e-05, "MEAN_MOTION_DDOT": 0}, "tle": {"line1": "1 60182U 24123A   25360.83001118  .00002248  00000+0  30779-3 0  9991", "line2": "2 60182  97.9215  95.4758 0001419 100.4397 259.6975 14.79478137 80393"}}, "geometry": {"type": "Point", "coordinates": [-115.39220507536636, -75.16521488277928]}}, {"type": "Feature", "properties": {"norad_id": 60452, "name": "LEGION 3", "group": "resource", "lat": -26.469410381272088, "lon": 79.86108141264636, "alt_km": 515.2910270774391, "timestamp": "2025-12-27T16:33:29.893886+00:00", "meta": {"OBJECT_NAME": "LEGION 3", "OBJECT_ID": "2024-146A", "EPOCH": "2025-12-27T02:56:33.227520", "MEAN_MOTION": 15.15909819, "ECCENTRICITY": 0.00157761, "INCLINATION": 45.0004, "RA_OF_ASC_NODE": 233.0201, "ARG_OF_PERICENTER": 274.8666, "MEAN_ANOMALY": 85.0412, "EPHEMERIS_TYPE": 0, "CLASSIFICATION_TYPE": "U", "NORAD_CAT_ID": 60452, "ELEMENT_SET_NO": 999, "REV_AT_EPOCH": 7591, "BSTAR": 0.00033039135, "MEAN_MOTION_DOT": 6.195e-05, "MEAN_MOTION_DDOT": 0}, "tle": {"line1": "1 60452U 24146A   25361.12260680  .00006195  00000+0  33039-3 0  9997", "line2": "2 60452  45.0004 233.0201 0015776 274.8666  85.0412 15.15909819 75918"}}, "geometry": {"type": "Point", "coordinates": [79.86108141264636, -26.469410381272088]}}, {"type": "Feature", "properties": {"norad_id": 60453, "name": "LEGION 4", "group": "resource", "lat": -26.67667637492512, "lon": 171.91079834427538, "alt_km": 526.0525918598332, "timestamp": "2025-12-27T16:33:29.893897+00:00", "meta": {"OBJECT_NAME": "LEGION 4", "OBJECT_ID": "2024-146B", "EPOCH": "2025-12-27T04:31:30.027072", "MEAN_MOTION": 15.15986372, "ECCENTRICITY": 0.00078109, "INCLINATION": 45.0397, "RA_OF_ASC_NODE": 324.4607, "ARG_OF_PERICENTER": 32.4876, "MEAN_ANOMALY": 327.6483, "EPHEMERIS_TYPE": 0, "CLASSIFICATION_TYPE": "U", "NORAD_CAT_ID": 60453, "ELEMENT_SET_NO": 999, "REV_AT_EPOCH": 7477, "BSTAR": 0.0003702879, "MEAN_MOTION_DOT": 6.976e-05, "MEAN_MOTION_DDOT": 0}, "tle": {"line1": "1 60453U 24146B   25361.18854198  .00006976  00000+0  37029-3 0  9997", "line2": "2 60453  45.0397 324.4607 0007810  32.4876 327.6483 15.15986372 74775"}}, "geometry": {"type": "Point", "coordinates": [171.91079834427538, -26.67667637492512]}}]}